0 COSMOS 2295 (GLONASS)
1 23396U 94076A   13282.79911448  .00000028  00000-0  00000+0 0  5128
2 23396 064.0687 229.1302 0036371 186.4425 033.3329 02.13103042146993
0 COSMOS 2295 (GLONASS)
1 23396U 94076A   13286.54027043 -.00000019  00000-0  00000+0 0  5136
2 23396 064.0678 229.0004 0036393 186.3951 023.4849 02.13103174147071
0 COSMOS 2295 (GLONASS)
1 23396U 94076A   13289.82577384 -.00000040  00000-0  00000+0 0  5143
2 23396 064.0672 228.8865 0036374 186.3484 024.0757 02.13103210147141
0 COSMOS 2295 (GLONASS)
1 23396U 94076A   13293.37535947 -.00000011  00000-0  00000+0 0  5156
2 23396 064.0664 228.7635 0036302 186.1818 227.3843 02.13103170147224
0 COSMOS 2295 (GLONASS)
1 23396U 94076A   13295.41828031 -.00000000  00000-0  00000+0 0  5161
2 23396 064.0659 228.6927 0036288 186.1604 354.6779 02.13103122147260
